{
  "norad_id": 62815,
  "name": "STARLINK-32845",
  "history": [
    {
      "epoch": "2026-03-28T15:28:32.206944Z",
      "apogee_km": 475.6970650591484,
      "perigee_km": 474.67043761059904,
      "latitude_deg": 4.097914313513101e-05,
      "longitude_deg": 163.13043826209346,
      "height_km": 476.09971323519363,
      "semi_major_axis_km": 6853.320751334873,
      "eccentricity": 7.49e-05,
      "inclination_deg": 53.1586,
      "raan_deg": 221.3269,
      "arg_perigee_deg": 91.9362,
      "mean_anomaly_deg": 268.1725,
      "mean_motion_rev_day": 15.30210489
    }
  ]
}