{"fetched_at":"2026-03-29T16:36:15Z","count":15609,"tles":[{"name":"STARLINK-32845","line1":"1 62815U 25018K   26087.64481721  .00024185  00000+0  82576-3 0  9994","line2":"2 62815  53.1586 221.3269 0000749  91.9362 268.1725 15.30210489 66070","category":"Starlink"}]}